STARLINK-32593          
1 61974U 24210R   26068.28724928  .00038891  00000+0  14146-2 0  9996
2 61974  43.0026 182.5093 0002841 295.6911  64.3648 15.27595378 74813
LIME                    
1 62648U 25009AR  26068.73906781  .00013254  00000+0  47723-3 0  9995
2 62648  97.3985 151.4831 0001635  35.9029 324.2320 15.28703313 63766
